COSMOS 1743             
1 16719U 86034A   25321.36812251  .00034875  00000+0  60851-3 0  9995
2 16719  82.5373 190.9070 0006568   1.5916 358.5355 15.50515227162801
SL-14 R/B               
1 16792U 86046B   25321.38690198  .00000806  00000+0  90356-4 0  9996
2 16792  82.4828 186.2560 0021794 237.3896 122.5217 14.85449772109739
AJISAI (EGS)            
1 16908U 86061A   25321.45492300 -.00000111  00000+0 -93826-4 0  9991
2 16908  50.0093  78.4644 0011201   2.2871 105.5962 12.44514144454024
COSMOS 1812             
1 17295U 87003A   25321.47005476  .00091618  00000+0  74502-3 0  9993
2 17295  82.4869 319.2596 0005628 127.9623 232.2148 15.70357993126683
SL-14 R/B               
1 17567U 87024B   25321.39371498  .00000840  00000+0  93280-4 0  9991
2 17567  82.5296 198.2619 0016724 273.3762  86.5542 14.85990053 71457
COSMOS 1833             
1 17589U 87027A   25321.37451299 -.00000144  00000+0 -51512-4 0  9995
2 17589  70.9140 202.0991 0021461   7.3969 352.7464 14.13018938994443
SL-14 R/B               
1 17912U 87038B   25321.33102008  .00000932  00000+0  10553-3 0  9996
2 17912  82.5038  42.6284 0019537 171.7084 188.4459 14.85227219 62555
COSMOS 1844             
1 17973U 87041A   25321.31639284  .00000265  00000+0  16269-3 0  9995
2 17973  70.8992 271.1910 0031412 195.7679 164.2468 14.14525583987698
SL-14 R/B               
1 18153U 87055B   25321.46210604  .00000951  00000+0  10710-3 0  9995
2 18153  82.4981  94.8088 0021368  28.3236 331.9136 14.85483417 53271
