CCSDS_OMM_VERS = 2.0
CREATION_DATE  = 
ORIGINATOR     = 

OBJECT_NAME    = COSMOS 1743
OBJECT_ID      = 1986-034A
CENTER_NAME    = EARTH
REF_FRAME      = TEME
TIME_SYSTEM    = UTC
MEAN_ELEMENT_THEORY = SGP/SGP4

EPOCH          = 2025-11-17T08:50:05.784864
MEAN_MOTION    = 15.50515227
ECCENTRICITY   = .0006568
INCLINATION    = 82.5373
RA_OF_ASC_NODE = 190.9070
ARG_OF_PERICENTER = 1.5916
MEAN_ANOMALY   = 358.5355

EPHEMERIS_TYPE = 0
CLASSIFICATION_TYPE = U
NORAD_CAT_ID   = 16719
ELEMENT_SET_NO = 999
REV_AT_EPOCH   = 16280
BSTAR          = .60851E-3
MEAN_MOTION_DOT = .34875E-3
MEAN_MOTION_DDOT = 0

CCSDS_OMM_VERS = 2.0
CREATION_DATE  = 
ORIGINATOR     = 

OBJECT_NAME    = SL-14 R/B
OBJECT_ID      = 1986-046B
CENTER_NAME    = EARTH
REF_FRAME      = TEME
TIME_SYSTEM    = UTC
MEAN_ELEMENT_THEORY = SGP/SGP4

EPOCH          = 2025-11-17T09:17:08.331072
MEAN_MOTION    = 14.85449772
ECCENTRICITY   = .0021794
INCLINATION    = 82.4828
RA_OF_ASC_NODE = 186.2560
ARG_OF_PERICENTER = 237.3896
MEAN_ANOMALY   = 122.5217

EPHEMERIS_TYPE = 0
CLASSIFICATION_TYPE = U
NORAD_CAT_ID   = 16792
ELEMENT_SET_NO = 999
REV_AT_EPOCH   = 10973
BSTAR          = .90356E-4
MEAN_MOTION_DOT = .806E-5
MEAN_MOTION_DDOT = 0

CCSDS_OMM_VERS = 2.0
CREATION_DATE  = 
ORIGINATOR     = 

OBJECT_NAME    = AJISAI (EGS)
OBJECT_ID      = 1986-061A
CENTER_NAME    = EARTH
REF_FRAME      = TEME
TIME_SYSTEM    = UTC
MEAN_ELEMENT_THEORY = SGP/SGP4

EPOCH          = 2025-11-17T10:55:05.347200
MEAN_MOTION    = 12.44514144
ECCENTRICITY   = .0011201
INCLINATION    = 50.0093
RA_OF_ASC_NODE = 78.4644
ARG_OF_PERICENTER = 2.2871
MEAN_ANOMALY   = 105.5962

EPHEMERIS_TYPE = 0
CLASSIFICATION_TYPE = U
NORAD_CAT_ID   = 16908
ELEMENT_SET_NO = 999
REV_AT_EPOCH   = 45402
BSTAR          = -.93826E-4
MEAN_MOTION_DOT = -.111E-5
MEAN_MOTION_DDOT = 0

CCSDS_OMM_VERS = 2.0
CREATION_DATE  = 
ORIGINATOR     = 

OBJECT_NAME    = COSMOS 1812
OBJECT_ID      = 1987-003A
CENTER_NAME    = EARTH
REF_FRAME      = TEME
TIME_SYSTEM    = UTC
MEAN_ELEMENT_THEORY = SGP/SGP4

EPOCH          = 2025-11-17T11:16:52.731264
MEAN_MOTION    = 15.70357993
ECCENTRICITY   = .0005628
INCLINATION    = 82.4869
RA_OF_ASC_NODE = 319.2596
ARG_OF_PERICENTER = 127.9623
MEAN_ANOMALY   = 232.2148

EPHEMERIS_TYPE = 0
CLASSIFICATION_TYPE = U
NORAD_CAT_ID   = 17295
ELEMENT_SET_NO = 999
REV_AT_EPOCH   = 12668
BSTAR          = .74502E-3
MEAN_MOTION_DOT = .91618E-3
MEAN_MOTION_DDOT = 0

CCSDS_OMM_VERS = 2.0
CREATION_DATE  = 
ORIGINATOR     = 

OBJECT_NAME    = SL-14 R/B
OBJECT_ID      = 1987-024B
CENTER_NAME    = EARTH
REF_FRAME      = TEME
TIME_SYSTEM    = UTC
MEAN_ELEMENT_THEORY = SGP/SGP4

EPOCH          = 2025-11-17T09:26:56.974272
MEAN_MOTION    = 14.85990053
ECCENTRICITY   = .0016724
INCLINATION    = 82.5296
RA_OF_ASC_NODE = 198.2619
ARG_OF_PERICENTER = 273.3762
MEAN_ANOMALY   = 86.5542

EPHEMERIS_TYPE = 0
CLASSIFICATION_TYPE = U
NORAD_CAT_ID   = 17567
ELEMENT_SET_NO = 999
REV_AT_EPOCH   = 7145
BSTAR          = .9328E-4
MEAN_MOTION_DOT = .84E-5
MEAN_MOTION_DDOT = 0

CCSDS_OMM_VERS = 2.0
CREATION_DATE  = 
ORIGINATOR     = 

OBJECT_NAME    = COSMOS 1833
OBJECT_ID      = 1987-027A
CENTER_NAME    = EARTH
REF_FRAME      = TEME
TIME_SYSTEM    = UTC
MEAN_ELEMENT_THEORY = SGP/SGP4

EPOCH          = 2025-11-17T08:59:17.922336
MEAN_MOTION    = 14.13018938
ECCENTRICITY   = .0021461
INCLINATION    = 70.9140
RA_OF_ASC_NODE = 202.0991
ARG_OF_PERICENTER = 7.3969
MEAN_ANOMALY   = 352.7464

EPHEMERIS_TYPE = 0
CLASSIFICATION_TYPE = U
NORAD_CAT_ID   = 17589
ELEMENT_SET_NO = 999
REV_AT_EPOCH   = 99444
BSTAR          = -.51512E-4
MEAN_MOTION_DOT = -.144E-5
MEAN_MOTION_DDOT = 0

CCSDS_OMM_VERS = 2.0
CREATION_DATE  = 
ORIGINATOR     = 

OBJECT_NAME    = SL-14 R/B
OBJECT_ID      = 1987-038B
CENTER_NAME    = EARTH
REF_FRAME      = TEME
TIME_SYSTEM    = UTC
MEAN_ELEMENT_THEORY = SGP/SGP4

EPOCH          = 2025-11-17T07:56:40.134912
MEAN_MOTION    = 14.85227219
ECCENTRICITY   = .0019537
INCLINATION    = 82.5038
RA_OF_ASC_NODE = 42.6284
ARG_OF_PERICENTER = 171.7084
MEAN_ANOMALY   = 188.4459

EPHEMERIS_TYPE = 0
CLASSIFICATION_TYPE = U
NORAD_CAT_ID   = 17912
ELEMENT_SET_NO = 999
REV_AT_EPOCH   = 6255
BSTAR          = .10553E-3
MEAN_MOTION_DOT = .932E-5
MEAN_MOTION_DDOT = 0

CCSDS_OMM_VERS = 2.0
CREATION_DATE  = 
ORIGINATOR     = 

OBJECT_NAME    = COSMOS 1844
OBJECT_ID      = 1987-041A
CENTER_NAME    = EARTH
REF_FRAME      = TEME
TIME_SYSTEM    = UTC
MEAN_ELEMENT_THEORY = SGP/SGP4

EPOCH          = 2025-11-17T07:35:36.341376
MEAN_MOTION    = 14.14525583
ECCENTRICITY   = .0031412
INCLINATION    = 70.8992
RA_OF_ASC_NODE = 271.1910
ARG_OF_PERICENTER = 195.7679
MEAN_ANOMALY   = 164.2468

EPHEMERIS_TYPE = 0
CLASSIFICATION_TYPE = U
NORAD_CAT_ID   = 17973
ELEMENT_SET_NO = 999
REV_AT_EPOCH   = 98769
BSTAR          = .16269E-3
MEAN_MOTION_DOT = .265E-5
MEAN_MOTION_DDOT = 0

CCSDS_OMM_VERS = 2.0
CREATION_DATE  = 
ORIGINATOR     = 

OBJECT_NAME    = SL-14 R/B
OBJECT_ID      = 1987-055B
CENTER_NAME    = EARTH
REF_FRAME      = TEME
TIME_SYSTEM    = UTC
MEAN_ELEMENT_THEORY = SGP/SGP4

EPOCH          = 2025-11-17T11:05:25.961856
MEAN_MOTION    = 14.85483417
ECCENTRICITY   = .0021368
INCLINATION    = 82.4981
RA_OF_ASC_NODE = 94.8088
ARG_OF_PERICENTER = 28.3236
MEAN_ANOMALY   = 331.9136

EPHEMERIS_TYPE = 0
CLASSIFICATION_TYPE = U
NORAD_CAT_ID   = 18153
ELEMENT_SET_NO = 999
REV_AT_EPOCH   = 5327
BSTAR          = .1071E-3
MEAN_MOTION_DOT = .951E-5
MEAN_MOTION_DDOT = 0

